{
  "type": "FeatureCollection",
  "features": [
    {
      "type": "Feature",
      "properties": {
        "norad_id": 34022,
        "name": "COSMOS 2251 DEB",
        "group": "cosmos-2251-debris",
        "lat": 50.43087614110721,
        "lon": 73.37462635295536,
        "alt_km": 770.6383566284894,
        "timestamp": "2025-12-11T05:00:26.701860+00:00",
        "meta_object_name": "COSMOS 2251 DEB",
        "meta_object_id": "1993-036HH",
        "meta_epoch": "2025-12-10T14:13:40.269216",
        "meta_mean_motion": 14.38958379,
        "meta_eccentricity": 0.0022647,
        "meta_inclination": 74.0542,
        "meta_ra_of_asc_node": 274.7506,
        "meta_arg_of_pericenter": 340.0797,
        "meta_mean_anomaly": 197.6313,
        "meta_ephemeris_type": 0,
        "meta_classification_type": "U",
        "meta_norad_cat_id": 34022,
        "meta_element_set_no": 999,
        "meta_rev_at_epoch": 88164,
        "meta_bstar": 0.00040867,
        "meta_mean_motion_dot": 1.238e-05,
        "meta_mean_motion_ddot": 0,
        "tle_line1": "1 34022U 93036HH  25344.59282719  .00001238  00000+0  40867-3 0  9994",
        "tle_line2": "2 34022  74.0542 274.7506 0022647 340.0797 197.6313 14.38958379881641"
      },
      "geometry": {
        "type": "Point",
        "coordinates": [
          73.37462635295536,
          50.43087614110721
        ]
      }
    },
    {
      "type": "Feature",
      "properties": {
        "norad_id": 34023,
        "name": "COSMOS 2251 DEB",
        "group": "cosmos-2251-debris",
        "lat": 35.510541721019955,
        "lon": -93.628376798904,
        "alt_km": 744.8954167355305,
        "timestamp": "2025-12-11T05:00:26.701870+00:00",
        "meta_object_name": "COSMOS 2251 DEB",
        "meta_object_id": "1993-036HJ",
        "meta_epoch": "2025-12-10T12:59:18.295008",
        "meta_mean_motion": 14.40553769,
        "meta_eccentricity": 0.0018393,
        "meta_inclination": 74.0252,
        "meta_ra_of_asc_node": 255.8116,
        "meta_arg_of_pericenter": 351.855,
        "meta_mean_anomaly": 185.2093,
        "meta_ephemeris_type": 0,
        "meta_classification_type": "U",
        "meta_norad_cat_id": 34023,
        "meta_element_set_no": 999,
        "meta_rev_at_epoch": 88182,
        "meta_bstar": 0.00055432,
        "meta_mean_motion_dot": 1.743e-05,
        "meta_mean_motion_ddot": 0,
        "tle_line1": "1 34023U 93036HJ  25344.54118397  .00001743  00000+0  55432-3 0  9995",
        "tle_line2": "2 34023  74.0252 255.8116 0018393 351.8550 185.2093 14.40553769881822"
      },
      "geometry": {
        "type": "Point",
        "coordinates": [
          -93.628376798904,
          35.510541721019955
        ]
      }
    },
    {
      "type": "Feature",
      "properties": {
        "norad_id": 34024,
        "name": "COSMOS 2251 DEB",
        "group": "cosmos-2251-debris",
        "lat": 68.37165584426084,
        "lon": 4.974644729214642,
        "alt_km": 760.4845553976675,
        "timestamp": "2025-12-11T05:00:26.701880+00:00",
        "meta_object_name": "COSMOS 2251 DEB",
        "meta_object_id": "1993-036HK",
        "meta_epoch": "2025-12-10T15:48:24.157152",
        "meta_mean_motion": 14.35392718,
        "meta_eccentricity": 0.0020937,
        "meta_inclination": 74.0463,
        "meta_ra_of_asc_node": 319.8079,
        "meta_arg_of_pericenter": 11.039,
        "meta_mean_anomaly": 102.8948,
        "meta_ephemeris_type": 0,
        "meta_classification_type": "U",
        "meta_norad_cat_id": 34024,
        "meta_element_set_no": 999,
        "meta_rev_at_epoch": 87994,
        "meta_bstar": 0.00032471,
        "meta_mean_motion_dot": 9.08e-06,
        "meta_mean_motion_ddot": 0,
        "tle_line1": "1 34024U 93036HK  25344.65861293  .00000908  00000+0  32471-3 0  9998",
        "tle_line2": "2 34024  74.0463 319.8079 0020937  11.0390 102.8948 14.35392718879943"
      },
      "geometry": {
        "type": "Point",
        "coordinates": [
          4.974644729214642,
          68.37165584426084
        ]
      }
    },
    {
      "type": "Feature",
      "properties": {
        "norad_id": 34026,
        "name": "COSMOS 2251 DEB",
        "group": "cosmos-2251-debris",
        "lat": -9.597583577084526,
        "lon": -22.991380486467875,
        "alt_km": 1215.0879009202918,
        "timestamp": "2025-12-11T05:00:26.701890+00:00",
        "meta_object_name": "COSMOS 2251 DEB",
        "meta_object_id": "1993-036HM",
        "meta_epoch": "2025-12-10T17:38:21.363936",
        "meta_mean_motion": 13.65304109,
        "meta_eccentricity": 0.03507239,
        "meta_inclination": 73.7681,
        "meta_ra_of_asc_node": 340.6193,
        "meta_arg_of_pericenter": 210.9356,
        "meta_mean_anomaly": 329.2517,
        "meta_ephemeris_type": 0,
        "meta_classification_type": "U",
        "meta_norad_cat_id": 34026,
        "meta_element_set_no": 999,
        "meta_rev_at_epoch": 83504,
        "meta_bstar": 0.0011270715,
        "meta_mean_motion_dot": 1.371e-05,
        "meta_mean_motion_ddot": 0,
        "tle_line1": "1 34026U 93036HM  25344.73496949  .00001371  00000+0  11271-2 0  9990",
        "tle_line2": "2 34026  73.7681 340.6193 0350723 210.9356 329.2517 13.65304109835042"
      },
      "geometry": {
        "type": "Point",
        "coordinates": [
          -22.991380486467875,
          -9.597583577084526
        ]
      }
    },
    {
      "type": "Feature",
      "properties": {
        "norad_id": 34028,
        "name": "COSMOS 2251 DEB",
        "group": "cosmos-2251-debris",
        "lat": -67.98420144014926,
        "lon": -144.75645040120602,
        "alt_km": 1422.3879506806225,
        "timestamp": "2025-12-11T05:00:26.701901+00:00",
        "meta_object_name": "COSMOS 2251 DEB",
        "meta_object_id": "1993-036HP",
        "meta_epoch": "2025-12-10T12:12:00.780768",
        "meta_mean_motion": 13.20620439,
        "meta_eccentricity": 0.05437774,
        "meta_inclination": 73.8833,
        "meta_ra_of_asc_node": 350.6714,
        "meta_arg_of_pericenter": 128.8985,
        "meta_mean_anomaly": 32.5831,
        "meta_ephemeris_type": 0,
        "meta_classification_type": "U",
        "meta_norad_cat_id": 34028,
        "meta_element_set_no": 999,
        "meta_rev_at_epoch": 80978,
        "meta_bstar": 0.00048738564,
        "meta_mean_motion_dot": 4.14e-06,
        "meta_mean_motion_ddot": 0,
        "tle_line1": "1 34028U 93036HP  25344.50834237  .00000414  00000+0  48739-3 0  9990",
        "tle_line2": "2 34028  73.8833 350.6714 0543777 128.8985  32.5831 13.20620439809785"
      },
      "geometry": {
        "type": "Point",
        "coordinates": [
          -144.75645040120602,
          -67.98420144014926
        ]
      }
    },
    {
      "type": "Feature",
      "properties": {
        "norad_id": 34031,
        "name": "COSMOS 2251 DEB",
        "group": "cosmos-2251-debris",
        "lat": 49.16509441544192,
        "lon": -60.74132469055096,
        "alt_km": 700.1068618385407,
        "timestamp": "2025-12-11T05:00:26.701911+00:00",
        "meta_object_name": "COSMOS 2251 DEB",
        "meta_object_id": "1993-036HS",
        "meta_epoch": "2025-12-10T16:59:40.436160",
        "meta_mean_motion": 14.59644682,
        "meta_eccentricity": 0.00229814,
        "meta_inclination": 74.0128,
        "meta_ra_of_asc_node": 139.5879,
        "meta_arg_of_pericenter": 259.9849,
        "meta_mean_anomaly": 119.131,
        "meta_ephemeris_type": 0,
        "meta_classification_type": "U",
        "meta_norad_cat_id": 34031,
        "meta_element_set_no": 999,
        "meta_rev_at_epoch": 88536,
        "meta_bstar": 0.0021158152,
        "meta_mean_motion_dot": 0.00010097,
        "meta_mean_motion_ddot": 0,
        "tle_line1": "1 34031U 93036HS  25344.70810690  .00010097  00000+0  21158-2 0  9996",
        "tle_line2": "2 34031  74.0128 139.5879 0022981 259.9849 119.1310 14.59644682885360"
      },
      "geometry": {
        "type": "Point",
        "coordinates": [
          -60.74132469055096,
          49.16509441544192
        ]
      }
    },
    {
      "type": "Feature",
      "properties": {
        "norad_id": 34035,
        "name": "COSMOS 2251 DEB",
        "group": "cosmos-2251-debris",
        "lat": -25.24663967831929,
        "lon": -15.723543418672634,
        "alt_km": 694.9658730845067,
        "timestamp": "2025-12-11T05:00:26.701922+00:00",
        "meta_object_name": "COSMOS 2251 DEB",
        "meta_object_id": "1993-036HW",
        "meta_epoch": "2025-12-10T19:27:45.247968",
        "meta_mean_motion": 14.51899939,
        "meta_eccentricity": 0.00445421,
        "meta_inclination": 74.0662,
        "meta_ra_of_asc_node": 352.7661,
        "meta_arg_of_pericenter": 354.6817,
        "meta_mean_anomaly": 61.3889,
        "meta_ephemeris_type": 0,
        "meta_classification_type": "U",
        "meta_norad_cat_id": 34035,
        "meta_element_set_no": 999,
        "meta_rev_at_epoch": 87938,
        "meta_bstar": 0.0025207319,
        "meta_mean_motion_dot": 0.00010281,
        "meta_mean_motion_ddot": 0,
        "tle_line1": "1 34035U 93036HW  25344.81094037  .00010281  00000+0  25207-2 0  9995",
        "tle_line2": "2 34035  74.0662 352.7661 0044542 354.6817  61.3889 14.51899939879383"
      },
      "geometry": {
        "type": "Point",
        "coordinates": [
          -15.723543418672634,
          -25.24663967831929
        ]
      }
    }
  ]
}